[{"OBJECT_NAME":"ICEYE-X48","OBJECT_ID":"2025-052AV","EPOCH":"2026-03-09T16:59:01.566528","MEAN_MOTION":14.97356709,"ECCENTRICITY":0.00026878,"INCLINATION":97.6979,"RA_OF_ASC_NODE":322.3976,"ARG_OF_PERICENTER":141.7433,"MEAN_ANOMALY":218.398,"EPHEMERIS_TYPE":0,"CLASSIFICATION_TYPE":"U","NORAD_CAT_ID":63253,"ELEMENT_SET_NO":999,"REV_AT_EPOCH":5378,"BSTAR":0.00039588576,"MEAN_MOTION_DOT":4.541e-5,"MEAN_MOTION_DDOT":0},{"OBJECT_NAME":"STARLINK-35498","OBJECT_ID":"2025-293Q","EPOCH":"2026-03-09T10:46:11.636256","MEAN_MOTION":14.98325601,"ECCENTRICITY":0.00029353,"INCLINATION":70.0006,"RA_OF_ASC_NODE":94.9889,"ARG_OF_PERICENTER":261.5962,"MEAN_ANOMALY":98.4864,"EPHEMERIS_TYPE":0,"CLASSIFICATION_TYPE":"U","NORAD_CAT_ID":67017,"ELEMENT_SET_NO":999,"REV_AT_EPOCH":1485,"BSTAR":-0.0010476463,"MEAN_MOTION_DOT":-0.00012569,"MEAN_MOTION_DDOT":0}]
